$$SOE
2460154.500000000, A.D. 2023-Jul-29 00:00:00.0000, 1.853218678810607E+08, 2.199687745536546E+08, -1.598255392411086E+08,
2460161.500000000, A.D. 2023-Aug-05 00:00:00.0000, 1.737201159370910E+08, 2.260466161016185E+08, -1.602643022096974E+08,
2460168.500000000, A.D. 2023-Aug-12 00:00:00.0000, 1.618774503768343E+08, 2.318108104488355E+08, -1.604806352192802E+08,
2460175.500000000, A.D. 2023-Aug-19 00:00:00.0000, 1.498062523639620E+08, 2.372475635727181E+08, -1.604702304873528E+08,
2460182.500000000, A.D. 2023-Aug-26 00:00:00.0000, 1.375198651796679E+08, 2.423433297600909E+08, -1.602291399236531E+08,
2460189.500000000, A.D. 2023-Sep-02 00:00:00.0000, 1.250325947964084E+08, 2.470848835178451E+08, -1.597538130846248E+08,
2460196.500000000, A.D. 2023-Sep-09 00:00:00.0000, 1.123597031745768E+08, 2.514593946919484E+08, -1.590411351526335E+08,
2460203.500000000, A.D. 2023-Sep-16 00:00:00.0000, 9.951739382402477E+07, 2.554545061479185E+08, -1.580884645014690E+08,
2460210.500000000, A.D. 2023-Sep-23 00:00:00.0000, 8.652278948998652E+07, 2.590584135968620E+08, -1.568936693621832E+08,
2460217.500000000, A.D. 2023-Sep-30 00:00:00.0000, 7.339390116203508E+07, 2.622599479419660E+08, -1.554551629245157E+08,
2460224.500000000, A.D. 2023-Oct-07 00:00:00.0000, 6.014958570617596E+07, 2.650486586758047E+08, -1.537719361307425E+08,
2460231.500000000, A.D. 2023-Oct-14 00:00:00.0000, 4.680949294190031E+07, 2.674148939974327E+08, -1.518435879373243E+08,
2460238.500000000, A.D. 2023-Oct-21 00:00:00.0000, 3.339400533718986E+07, 2.693498781614631E+08, -1.496703526275316E+08,
2460245.500000000, A.D. 2023-Oct-28 00:00:00.0000, 1.992416902521137E+07, 2.708457871619274E+08, -1.472531232816424E+08,
2460252.500000000, A.D. 2023-Nov-04 00:00:00.0000, 6.421615204476899E+06, 2.718958207847689E+08, -1.445934707915075E+08,
2460259.500000000, A.D. 2023-Nov-11 00:00:00.0000, -7.091527395441297E+06, 2.724942692271919E+08, -1.416936579657350E+08,
2460266.500000000, A.D. 2023-Nov-18 00:00:00.0000, -2.059272806172282E+07, 2.726365730412557E+08, -1.385566482936970E+08,
2460273.500000000, A.D. 2023-Nov-25 00:00:00.0000, -3.405915669116102E+07, 2.723193753021296E+08, -1.351861089964993E+08,
2460280.500000000, A.D. 2023-Dec-02 00:00:00.0000, -4.746779231773216E+07, 2.715405649575347E+08, -1.315864080879250E+08,
2460287.500000000, A.D. 2023-Dec-09 00:00:00.0000, -6.079553624397791E+07, 2.702993103896046E+08, -1.277626052832518E+08,
2460294.500000000, A.D. 2023-Dec-16 00:00:00.0000, -7.401932809029487E+07, 2.685960824443254E+08, -1.237204367200967E+08,
2460301.500000000, A.D. 2023-Dec-23 00:00:00.0000, -8.711626290438938E+07, 2.664326670381697E+08, -1.194662935244652E+08,
2460308.500000000, A.D. 2023-Dec-30 00:00:00.0000, -1.000637090877911E+08, 2.638121680171305E+08, -1.150071941946680E+08,
2460315.500000000, A.D. 2024-Jan-06 00:00:00.0000, -1.128394272882427E+08, 2.607389977488180E+08, -1.103507511315555E+08,
2460322.500000000, A.D. 2024-Jan-13 00:00:00.0000, -1.254216854740753E+08, 2.572188536957136E+08, -1.055051321555650E+08,
2460329.500000000, A.D. 2024-Jan-20 00:00:00.0000, -1.377893674206646E+08, 2.532586843386368E+08, -1.004790173875226E+08,
2460336.500000000, A.D. 2024-Jan-27 00:00:00.0000, -1.499220751764727E+08, 2.488666456112030E+08, -9.528155186778367E+07,
2460343.500000000, A.D. 2024-Feb-03 00:00:00.0000, -1.618002246035442E+08, 2.440520475990641E+08, -8.992229463288496E+07,
2460350.500000000, A.D. 2024-Feb-10 00:00:00.0000, -1.734051325512871E+08, 2.388252920909970E+08, -8.441116503679186E+07,
2460357.500000000, A.D. 2024-Feb-17 00:00:00.0000, -1.847190945552365E+08, 2.331978020223084E+08, -7.875838710779968E+07,
2460364.500000000, A.D. 2024-Feb-24 00:00:00.0000, -1.957254522664226E+08, 2.271819439832940E+08, -7.297443274101421E+07,
2460371.500000000, A.D. 2024-Mar-02 00:00:00.0000, -2.064086500447733E+08, 2.207909450100104E+08, -6.706996452448807E+07,
2460378.500000000, A.D. 2024-Mar-09 00:00:00.0000, -2.167542802646198E+08, 2.140388048990525E+08, -6.105577898147681E+07,
2460385.500000000, A.D. 2024-Mar-16 00:00:00.0000, -2.267491168442601E+08, 2.069402055645019E+08, -5.494275096578206E+07,
2460392.500000000, A.D. 2024-Mar-23 00:00:00.0000, -2.363811372219402E+08, 1.995104198472281E+08, -4.874177976461457E+07,
2460399.500000000, A.D. 2024-Mar-30 00:00:00.0000, -2.456395353363503E+08, 1.917652210028529E+08, -4.246373728872176E+07,
2460406.500000000, A.D. 2024-Apr-06 00:00:00.0000, -2.545147258422776E+08, 1.837207906826018E+08, -3.611941915033235E+07,
2460413.500000000, A.D. 2024-Apr-13 00:00:00.0000, -2.629983366323459E+08, 1.753936273178706E+08, -2.971949929584593E+07,
2460420.500000000, A.D. 2024-Apr-20 00:00:00.0000, -2.710831913682312E+08, 1.668004585354584E+08, -2.327448821093167E+07,
2460427.500000000, A.D. 2024-Apr-27 00:00:00.0000, -2.787632843904029E+08, 1.579581578782286E+08, -1.679469484670417E+07,
2460434.500000000, A.D. 2024-May-04 00:00:00.0000, -2.860337488253511E+08, 1.488836658341335E+08, -1.029019248679329E+07,
2460441.500000000, A.D. 2024-May-11 00:00:00.0000, -2.928908185914224E+08, 1.395939156375892E+08, -3.770788657960102E+06,
2460448.500000000, A.D. 2024-May-18 00:00:00.0000, -2.993317851733280E+08, 1.301057642957725E+08, 2.754000909908712E+06,
2460455.500000000, A.D. 2024-May-25 00:00:00.0000, -3.053549500827077E+08, 1.204359291363066E+08, 9.274974335821174E+06,
2460462.500000000, A.D. 2024-Jun-01 00:00:00.0000, -3.109595738573859E+08, 1.106009300033918E+08, 1.578326176155785E+07,
2460469.500000000, A.D. 2024-Jun-08 00:00:00.0000, -3.161458222198951E+08, 1.006170371550037E+08, 2.227033978959336E+07,
2460476.500000000, A.D. 2024-Jun-15 00:00:00.0000, -3.209147098046415E+08, 9.050022538444252E+07, 2.872804239693647E+07,
2460483.500000000, A.D. 2024-Jun-22 00:00:00.0000, -3.252680432020177E+08, 8.026613543428019E+07, 3.514856874536838E+07,
2460490.500000000, A.D. 2024-Jun-29 00:00:00.0000, -3.292083661165521E+08, 6.993004070407470E+07, 4.152448818657418E+07,
2460497.500000000, A.D. 2024-Jul-06 00:00:00.0000, -3.327389045954607E+08, 5.950681654965562E+07, 4.784874228424953E+07,
2460504.500000000, A.D. 2024-Jul-13 00:00:00.0000, -3.358635108928773E+08, 4.901091472148125E+07, 5.411464417741659E+07,
2460511.500000000, A.D. 2024-Jul-20 00:00:00.0000, -3.385866083944927E+08, 3.845634377305239E+07, 6.031587583163439E+07,
2460518.500000000, A.D. 2024-Jul-27 00:00:00.0000, -3.409131386352025E+08, 2.785665414149069E+07, 6.644648342673296E+07,
2460525.500000000, A.D. 2024-Aug-03 00:00:00.0000, -3.428485104420090E+08, 1.722492718010197E+07, 7.250087108392914E+07,
2460532.500000000, A.D. 2024-Aug-10 00:00:00.0000, -3.443985512689677E+08, 6.573767787003607E+06, 7.847379316049993E+07,
2460539.500000000, A.D. 2024-Aug-17 00:00:00.0000, -3.455694608480679E+08, -4.084699704355888E+06, 8.436034533542033E+07,
2460546.500000000, A.D. 2024-Aug-24 00:00:00.0000, -3.463677672513857E+08, -1.473883274990605E+07, 9.015595469083801E+07,
2460553.500000000, A.D. 2024-Aug-31 00:00:00.0000, -3.468002853338938E+08, -2.537746934132573E+07, 9.585636896898878E+07,
2460560.500000000, A.D. 2024-Sep-07 00:00:00.0000, -3.468740772410930E+08, -3.598992447353481E+07, 1.014576451630445E+08,
2460567.500000000, A.D. 2024-Sep-14 00:00:00.0000, -3.465964149093307E+08, -4.656598364029342E+07, 1.069561376808586E+08,
2460574.500000000, A.D. 2024-Sep-21 00:00:00.0000, -3.459747465667269E+08, -5.709589322732291E+07, 1.123484864481591E+08,
2460581.500000000, A.D. 2024-Sep-28 00:00:00.0000, -3.450166676759309E+08, -6.757035129360098E+07, 1.176316048615924E+08,
2460588.500000000, A.D. 2024-Oct-05 00:00:00.0000, -3.437298925823468E+08, -7.798049898003122E+07, 1.228026673686364E+08,
2460595.500000000, A.D. 2024-Oct-12 00:00:00.0000, -3.421222271410370E+08, -8.831790978406222E+07, 1.278590970467011E+08,
2460602.500000000, A.D. 2024-Oct-19 00:00:00.0000, -3.402015439725612E+08, -9.857457717269792E+07, 1.327985533999354E+08,
2460609.500000000, A.D. 2024-Oct-26 00:00:00.0000, -3.379757602749867E+08, -1.087429015192090E+08, 1.376189203806703E+08,
2460616.500000000, A.D. 2024-Nov-02 00:00:00.0000, -3.354528178258202E+08, -1.188156766746398E+08, 1.423182946594666E+08,
2460623.500000000, A.D. 2024-Nov-09 00:00:00.0000, -3.326406649636265E+08, -1.287860762959749E+08, 1.468949741854405E+08,
2460630.500000000, A.D. 2024-Nov-16 00:00:00.0000, -3.295472404070852E+08, -1.386476400559885E+08, 1.513474470732194E+08,
2460637.500000000, A.D. 2024-Nov-23 00:00:00.0000, -3.261804587480861E+08, -1.483942598943537E+08, 1.556743808382930E+08,
2460644.500000000, A.D. 2024-Nov-30 00:00:00.0000, -3.225481972956847E+08, -1.580201664477261E+08, 1.598746119809895E+08,
2460651.500000000, A.D. 2024-Dec-07 00:00:00.0000, -3.186582837391226E+08, -1.675199153196144E+08, 1.639471359312620E+08,
2460658.500000000, A.D. 2024-Dec-14 00:00:00.0000, -3.145184852091801E+08, -1.768883720351880E+08, 1.678910975277296E+08,
2460665.500000000, A.D. 2024-Dec-21 00:00:00.0000, -3.101365009510362E+08, -1.861206969808170E+08, 1.717057821477004E+08,
2460672.500000000, A.D. 2024-Dec-28 00:00:00.0000, -3.055199565368980E+08, -1.952123333458017E+08, 1.753906070677360E+08,
2460679.500000000, A.D. 2025-Jan-04 00:00:00.0000, -3.006763969275440E+08, -2.041589957296465E+08, 1.789451130107698E+08,
2460686.500000000, A.D. 2025-Jan-11 00:00:00.0000, -2.956132801137295E+08, -2.129566577849518E+08, 1.823689561775616E+08,
2460693.500000000, A.D. 2025-Jan-18 00:00:00.0000, -2.903379721681397E+08, -2.216015398388809E+08, 1.856619007631003E+08,
2460700.500000000, A.D. 2025-Jan-25 00:00:00.0000, -2.848577433839568E+08, -2.300900969874908E+08, 1.888238118874801E+08,
2460707.500000000, A.D. 2025-Feb-01 00:00:00.0000, -2.791797652362271E+08, -2.384190077076077E+08, 1.918546489116900E+08,
2460714.500000000, A.D. 2025-Feb-08 00:00:00.0000, -2.733111080386901E+08, -2.465851629757509E+08, 1.947544591237683E+08,
2460721.500000000, A.D. 2025-Feb-15 00:00:00.0000, -2.672587392030436E+08, -2.545856559188911E+08, 1.975233717788754E+08,
$$EOE